ID,LOCALITY,ZIPCODE,CITY
1,SAGAR ROAD,500042,HYDERABAD
2,SAI NAGAR,500072,HYDERABAD
3,SAIDABAD,500073,HYDERABAD
4,SAIFABAD,500038,HYDERABAD
5,SALEEM NAGAR,500041,HYDERABAD
6,SANATH NAGAR,500045,HYDERABAD
7,SANTOSH NAGAR,500047,HYDERABAD
8,SAROOR NAGAR,500049,HYDERABAD
9,SEBASTIAN ROAD,500051,HYDERABAD
10,SECRETARIAT,500053,HYDERABAD
11,SEETHARAMBAGH,500055,HYDERABAD
12,SERILINGAMPALLY,500057,HYDERABAD
13,SHAH ALI BANDA,500059,HYDERABAD
14,SHAHPUR NAGAR,500061,HYDERABAD
15,SHAIKPET,500063,HYDERABAD
16,SHAHPUR NAGAR,500065,HYDERABAD
17,SHAMSHERGUNJ,500067,HYDERABAD
18,SHANKER BAGH,500069,HYDERABAD
19,SHANKER MUTT,500071,HYDERABAD
20,SHANTI NAGAR,500073,HYDERABAD
21,SHIVAM ROAD,500075,HYDERABAD
22,SHIVARAMPALLY,500077,HYDERABAD
23,SIDDARTH NAGAR,500079,HYDERABAD
24,SIDDIAMBER BAZAR,500081,HYDERABAD
25,SIKH ROAD,500083,HYDERABAD
26,SIKH VILLAGE,500085,HYDERABAD
27,SIKH VILLAGE ROAD,500087,HYDERABAD
28,SINDHI COLONY,500089,HYDERABAD
29,SITAPHAL MANDI,500091,HYDERABAD
30,SOMAJIGUDA,500093,HYDERABAD
31,SOMAJIGUDA CIRCLE,500095,HYDERABAD
32,SRI KRISHNA NAGAR,500097,HYDERABAD
33,SRI SRINIVAS COLONY,500099,HYDERABAD
34,SRINAGAR,500101,HYDERABAD
35,SRINAGAR COLONY MAIN ROAD,500103,HYDERABAD
36,SRINIVASA COLONY,500105,HYDERABAD
37,SRINIVASA NAGAR,500107,HYDERABAD
38,SRINIVASA NAGAR COLONY,500109,HYDERABAD
39,ST. JOHNS ROAD,500111,HYDERABAD
40,ST. MARYS ROAD,500113,HYDERABAD
41,SUBASH ROAD,500115,HYDERABAD
42,SULTAN BAZAR,500117,HYDERABAD
43,SURYA NAGAR COLONY,500119,HYDERABAD
44,SHAPUR NAGAR,500121,HYDERABAD
45,SHIVAJI NAGAR,500123,HYDERABAD
46,TAD BUND,500125,HYDERABAD
47,TAD BUND X ROAD,500127,HYDERABAD
48,TALAB KATTA,500129,HYDERABAD
49,TALABKATTA,500131,HYDERABAD
50,TANK BUND,500133,HYDERABAD
51,TANK BUND ROAD,500135,HYDERABAD
52,TAR BUND,500137,HYDERABAD
53,TAR BUND X ROAD,500139,HYDERABAD
54,TARANAGAR,500141,HYDERABAD
55,TARNAKA,500143,HYDERABAD
56,TILAK NAGAR,500145,HYDERABAD
57,TILAK ROAD,500147,HYDERABAD
58,TOBACCO BAZAR,500149,HYDERABAD
59,TOLI CHOWKI,500151,HYDERABAD
60,TOPKHANA,500153,HYDERABAD
61,TRIMULGHERRY,500155,HYDERABAD
62,TRIMULGHERRY X ROAD,500157,HYDERABAD
63,TROOP BAZAR,500159,HYDERABAD
64,UPPAL,500161,HYDERABAD
65,UPPUGUDA,500163,HYDERABAD
66,VANASTHALIPURAM,500165,HYDERABAD
67,VASAVI NAGAR,500167,HYDERABAD
68,VENGAL RAO NAGAR,500169,HYDERABAD
69,VENKATAPURAM,500171,HYDERABAD
70,VIDYANAGAR,500173,HYDERABAD
71,VIJAY NAGAR COLONY,500175,HYDERABAD
72,VIKAS NAGAR,500177,HYDERABAD
73,VIKRAMPURI,500179,HYDERABAD
74,VIKRAMPURI COLONY,500181,HYDERABAD
75,VINAYAK RAO NAGAR,500183,HYDERABAD
76,VITHALWADI,500185,HYDERABAD
77,WARASIGUDA,500187,HYDERABAD
78,WEST MARREDPALLY,500189,HYDERABAD
79,YAKUTPURA,500191,HYDERABAD
80,YAPRAL,500193,HYDERABAD
81,YELLAREDDY GUDA,500195,HYDERABAD
82,YELLAREDDYGUDA,500197,HYDERABAD
83,YOUSUF BAZAR,500199,HYDERABAD
84,YOUSUFGUDA,500201,HYDERABAD
85,ZAMISTANPUR,500203,HYDERABAD
86,TIRUMALGHERRY,500205,HYDERABAD
87,HYDERABAD AIRPORT 1,500207,HYDERABAD
88,HYDER SHAH KOTE,500209,HYDERABAD
89,HYDERABAD GPO,500211,HYDERABAD
90,HYDERABAD JUBILEE HO,500213,HYDERABAD
91,HYDERABAD PUBLIC SCHOOL,500215,HYDERABAD
92,I.E.NACHARAM,500217,HYDERABAD
93,I.M.COLONY,500219,HYDERABAD
94,IBRAHIM BAGH LINES,500221,HYDERABAD
95,IE MOULALI,500223,HYDERABAD
96,IICT,500225,HYDERABAD
97,JAGGAMGUDA,500227,HYDERABAD
98,JAMA I OSMANIA,500229,HYDERABAD
99,JILLELLAGUDA,500231,HYDERABAD
100,KARWAN SAHU,500233,HYDERABAD
101,KACHIVANI SINGARAM,500235,HYDERABAD
102,KATTEDAN IE SO,500237,HYDERABAD
103,KEESARA,500239,HYDERABAD
104,KEESARAGUTTA,500241,HYDERABAD
105,KESHOGIRI SO,500243,HYDERABAD
106,KHAIRATABAD HO,500245,HYDERABAD
107,KINGSWAY,500247,HYDERABAD
108,KISMATPUR,500249,HYDERABAD
109,KOLTHUR,500251,HYDERABAD
110,KORREMAL,500253,HYDERABAD
111,KULSUMPURA,500255,HYDERABAD
112,KYASARAM,500257,HYDERABAD
113,LALGADI MALAKPET,500259,HYDERABAD
114,MEHDIPATNAM,500261,HYDERABAD
115,OLD CITY,500263,HYDERABAD
116,PRATAP SINGARAM,500265,HYDERABAD
117,QAZIPURA,500267,HYDERABAD
118,RC IMARAT SO,500269,HYDERABAD
119,RAHMATH NAGAR,500271,HYDERABAD
120,RAIL NILAYAM,500273,HYDERABAD
121,RAJ BHAVAN,500275,HYDERABAD
122,RAJBOLARAM,500277,HYDERABAD
123,AG COLLEGE,500279,HYDERABAD
124,AG OFFICE,500281,HYDERABAD
125,A.GS STAFF QUARTERS,500283,HYDERABAD
126,AMBER NAGAR,500285,HYDERABAD
127,ANAND NAGAR,500287,HYDERABAD
128,ANANTHAGIRI,500289,HYDERABAD
129,ANDHRA MAHILA SABHA,500291,HYDERABAD
130,APERL,500293,HYDERABAD
131,APHB COLONY MOULALI,500295,HYDERABAD
132,ATVELLI,500297,HYDERABAD
133,BADANGPET,500299,HYDERABAD
134,BEGUMPET,500301,HYDERABAD
135,BEGUMPET POLICE LINES,500303,HYDERABAD
136,BHARATH NAGAR COLONY,500305,HYDERABAD
137,BODUPPAL,500307,HYDERABAD
138,BOGARAM,500309,HYDERABAD
139,CENTRAL POLICE LINES,500311,HYDERABAD
140,CHANCHALGUDA COLONY,500313,HYDERABAD
141,CHANDULAL BARADARI,500315,HYDERABAD
142,CRP CAMP,500317,HYDERABAD
143,CYBERABAD,500319,HYDERABAD
144,DARGAH HUSSAIN SHAH WALI,500321,HYDERABAD
145,DARUSHIFA,500323,HYDERABAD
146,DATTATREYA COLONY,500325,HYDERABAD
147,DHOOLPET,500327,HYDERABAD
148,FATHENAGAR COLONY,500329,HYDERABAD
149,GAJULARAMARAM,500331,HYDERABAD
150,GANDHI BHAVAN,500333,HYDERABAD
151,GIRMAPUR,500335,HYDERABAD
152,GOLCONDA CHOWRASTHA,500337,HYDERABAD
153,YADGARPALLY,500339,HYDERABAD
154,VIDHAN SABHA,500341,HYDERABAD
155,VISHALI NAGAR,500343,HYDERABAD
156,VAIDEHI NAGAR,500345,HYDERABAD
157,THUMKUNTA,500347,HYDERABAD
158,THIMMAIPALLY,500349,HYDERABAD
159,SWARAJ NAGAR,500351,HYDERABAD
160,SARDAR VALLABHBHAI PATEL NATIONAL POLICE ACADEMY,500353,HYDERABAD
161,SURVEY OF INDIA,500355,HYDERABAD
162,SURARAM,500357,HYDERABAD
163,SULTAN SHAHI,500359,HYDERABAD
164,KACHIGUDA STATION,500361,HYDERABAD
165,STATE BANK OF HYDERABAD,500363,HYDERABAD
166,SRIPURAM COLONY,500365,HYDERABAD
167,SRINIVASAPURAM,500367,HYDERABAD
168,SOUTH BANJARA HILLS,500369,HYDERABAD
169,SNEHAPURI COLONY,500371,HYDERABAD
170,SITAPHALMANDI,500373,HYDERABAD
171,SHYAM NAGAR,500375,HYDERABAD
172,TURKAPALLIYADARAM,500377,HYDERABAD
173,TAGARIKANAKA,500379,HYDERABAD
174,ANKIREDDYPALLI,500381,HYDERABAD
175,ANKUSHAPUR,500383,HYDERABAD
176,ANNOJIGUDA,500385,HYDERABAD
177,CHERIAL,500387,HYDERABAD
178,VIKARABAD,500389,HYDERABAD
179,GOWDAVALLI,500391,HYDERABAD
180,HANUMANPET,500393,HYDERABAD
181,HASSAN NAGAR,500395,HYDERABAD
182,HIMAYAT NAGAR,500397,HYDERABAD
183,GSI (SR) BANDLAGUDA,500399,HYDERABAD
184,ABIDS,500401,HYDERABAD
185,AMBERPET,500403,HYDERABAD
186,DILSUKHNAGAR,500405,HYDERABAD
187,SANJEEVA REDDY NAGAR,500407,HYDERABAD
188,HUDA RESIDENTIAL COMPLEX,500409,HYDERABAD
189,HINDUSTAN CABLES LTD,500411,HYDERABAD
190,DK ROAD,500413,HYDERABAD
191,HIGH COURT SO,500415,HYDERABAD
192,LIC DIVISION,500417,HYDERABAD
193,LANGER HOUSE,500419,HYDERABAD
194,MALAKPET COLONY,500421,HYDERABAD
195,MAMIDIPALLI,500423,HYDERABAD
196,MANGALHAT,500425,HYDERABAD
197,MANSOORABAD,500427,HYDERABAD
198,MOGHALPURA,500429,HYDERABAD
199,RAMPALLY,500431,HYDERABAD
200,NANAKRAMGUDA,500433,HYDERABAD
201,OSMAN NAGAR,500435,HYDERABAD
202,PADMARAO NAGAR,500437,HYDERABAD
203,PADMAVATHI NAGAR,500439,HYDERABAD
204,PAHADI SHAREEF,500441,HYDERABAD
205,KOTI,500443,HYDERABAD
206,PIRZADI GUDA,500445,HYDERABAD
207,NUTHANKAL,500447,HYDERABAD
208,P AND T COLONY S O,500449,HYDERABAD
209,OLD MLA QUARTERS,500451,HYDERABAD
210,NEW MLA QUARTERS,500453,HYDERABAD
211,NGRI,500455,HYDERABAD
212,REIN BAZAR,500457,HYDERABAD
213,SAIDABAD COLONY,500459,HYDERABAD
214,SANATH NAGAR COLONY,500461,HYDERABAD
215,SEETHARAMPET,500463,HYDERABAD
216,SANTOSH NAGAR COLONY,500465,HYDERABAD
217,SAKKUBAI NAGAR,500467,HYDERABAD
218,NAPIER LINES,500469,HYDERABAD
219,OSMANIA GENERAL HOSPITAL,500471,HYDERABAD
220,HYDERABAD AIRPORT LIMITED,500473,HYDERABAD
221,RAMAKRISHNA MATH,500475,HYDERABAD
222,PARISHRAM BHAVAN,500477,HYDERABAD
223,PEDDALAXMAPUR,500479,HYDERABAD
224,RAM KOTI,500481,HYDERABAD
225,RAMPALLIDIARA,500483,HYDERABAD
226,RANGAREDDY DISTRICT COURT,500485,HYDERABAD
227,RAVALKOLE,500487,HYDERABAD
228,SAHIFA S O,500489,HYDERABAD
229,SANATH NAGAR IE,500491,HYDERABAD
230,HINDI BHAWAN,500493,HYDERABAD
231,YELAHANKA SATELLITE TOWNSHIP,500495,BANGLORE
232,MADIVALA TANK,500497,BANGLORE
233,BTM LAYOUT,500499,BANGLORE
234,BULL TEMPLE,500501,BANGLORE
235,BIOTECHNICAL GARDEN,500503,BANGLORE
236,ST ANDREW'S CHURCH,500505,BANGLORE
237,LAL BAGH GARDENS,500507,BANGLORE
238,BENGALURU INTERNATIONAL AIRPORT (KEMPEGOWDA INTERNATIONAL AIRPORT),500509,BANGLORE
239,GOLF COURSE OF BANGALORE,500511,BANGLORE
240,TIPU SULTAN'S SUMMER PALACE,500513,BANGLORE
241,BANGALORE PALACE,500515,BANGLORE
242,CUBBON PARK,500517,BANGLORE
243,VARTHUR KERE,500519,BANGLORE
244,MAYO HALL,500521,BANGLORE
245,VIDHANA SOUDHA,500523,BANGLORE
246,VENKATAPPA ART GALLERY,500525,BANGLORE
247,VISVESVARAYA INDUSTRIAL AND TECHNOLOGICAL MUSEUM,500527,BANGLORE
248,BANGALORE MUSEUM,500529,BANGLORE
249,KARNATAKA HIGH COURT,500531,BANGLORE
250,LAXMI ROAD,500533,PUNE
251,C ROAD,500535,PUNE
252,RABHAT ROAD,500537,PUNE
253,ATARA ROAD,500539,PUNE
254,ANGLI MAHARAJ ROAD / SINHGAD ROAD,500541,PUNE
255,NIVERSITRY ROAD,500543,PUNE
256,IMANAGAR ROAD,500545,PUNE
257,AHATMA GANDHI ROAD,500547,PUNE
258,AW COLLEGE ROAD (NOT SURE),500549,PUNE
259,LAL BAHADUR SHASTRI ROAD,500551,PUNE
260,KARVE ROAD,500553,PUNE
261,SOLHAPUR ROAD,500555,PUNE
262,S.B ROAD ,500557,PUNE
263,DELHI CANTT,500559,NEW DELHI
264,DELHI GATE,500561,NEW DELHI
265,DELHI GPO,500563,NEW DELHI
266,DELHI HIGH COURT,500565,NEW DELHI
267,DELHI ROAD,500567,NEW DELHI
268,DERAWAL NAGAR,500569,NEW DELHI
269,DESH BANDHU GUPTA ROAD,500571,NEW DELHI
270,DEV NAGAR,500573,NEW DELHI
271,DHAULA KUAN,500575,NEW DELHI
272,DILSHAD COLONY,500577,NEW DELHI
273,DILSHAD GARDEN,500579,NEW DELHI
274,DLF PHASE 1,500581,NEW DELHI
275,DLF CITY,500583,NEW DELHI
276,DLF CITY PHASE 1,500585,NEW DELHI
277,DLF CITY PHASE 2,500587,NEW DELHI
278,DLF CITY PHASE 3,500589,NEW DELHI
279,DLF CITY PHASE 4,500591,NEW DELHI
280,DLF CITY PHASE II,500593,NEW DELHI
281,DLF CITY PHASE III,500595,NEW DELHI
282,DLF CITY PHASE IV,500597,NEW DELHI
283,DLF INDUSTRIAL AREA,500599,NEW DELHI
284,DLF PHASE 2,500601,NEW DELHI
285,DLF PHASE 4,500603,NEW DELHI
286,DLF PHASE II,500605,NEW DELHI
287,DLF PHASE IV,500607,NEW DELHI
288,DR. MUKHERJEE NAGAR,500609,NEW DELHI
289,DR. MUKHERJI NAGAR,500611,NEW DELHI
290,DR MUKHERJEE NAGAR,500613,NEW DELHI
291,DURGAPURI,500615,NEW DELHI
292,DWARKA SECTOR 6,500617,NEW DELHI
293,DWARKA SECTOR 10,500619,NEW DELHI
294,DWARKA SECTOR 11,500621,NEW DELHI
295,DWARKA SECTOR 12,500623,NEW DELHI
296,DWARKA SECTOR 19,500625,NEW DELHI
297,DWARKA SECTOR 3,500627,NEW DELHI
298,DWARKA SECTOR 4,500629,NEW DELHI
299,DWARKA SECTOR 5,500631,NEW DELHI
300,DWARKA SECTOR 7,500633,NEW DELHI
301,DWARKA SECTOR 9,500635,NEW DELHI
302,EAST KRISHNA NAGAR,500637,NEW DELHI
303,EAST PATEL NAGAR,500639,NEW DELHI
304,FARIDABAD OLD,500641,NEW DELHI
305,FARIDABAD SECTOR 15 A,500643,NEW DELHI
306,FARIDABAD SECTOR 16,500645,NEW DELHI
307,FARIDABAD SECTOR 7,500647,NEW DELHI
308,FATEH NAGAR,500649,NEW DELHI
309,FATEHPURI,500651,NEW DELHI
310,FRIENDS COLONY,500653,NEW DELHI
311,FRIENDS COLONY EAST,500655,NEW DELHI
312,G B ROAD,500657,NEW DELHI
313,G T KARNAL ROAD,500659,NEW DELHI
314,G T KARNAL ROAD INDUSTRIAL AREA,500661,NEW DELHI
315,GAGAN VIHAR,500663,NEW DELHI
316,GANDHI NAGAR,500665,NEW DELHI
317,GANESH NAGAR,500667,NEW DELHI
318,GARHI,500669,NEW DELHI
319,GARIMA GARDEN,500671,NEW DELHI
320,GAUTAM BUDH NAGAR,500673,NEW DELHI
321,GAUTAM NAGAR,500675,NEW DELHI
322,GAZIPUR,500677,NEW DELHI
323,GEETA COLONY,500679,NEW DELHI
324,GEETANJALI ENCLAVE,500681,NEW DELHI
325,GHAROLI,500683,NEW DELHI
326,GHAZIABAD SECTOR 11,500685,NEW DELHI
327,GHAZIABAD SECTOR 12,500687,NEW DELHI
328,GHAZIABAD SECTOR 3,500689,NEW DELHI
329,GHAZIABAD SECTOR 4,500691,NEW DELHI
330,GHAZIABAD SECTOR 9,500693,NEW DELHI
331,GHAZIPUR,500695,NEW DELHI
332,GHAZIPUR ROAD,500697,NEW DELHI
333,GHITORNI,500699,NEW DELHI
334,GHONDA CHOWK,500701,NEW DELHI
335,GOKALPURI,500703,NEW DELHI
336,GOL MARKET,500705,NEW DELHI
337,GOLE MARKET,500707,NEW DELHI
338,GOLF LINK,500709,NEW DELHI
339,GOVINDPURI,500711,NEW DELHI
340,GREATER KAILASH 1,500713,NEW DELHI
341,GREATER KAILASH 2,500715,NEW DELHI
342,GREATER KAILASH ENCLAVE,500717,NEW DELHI
343,GREATER KAILASH ENCLAVE-1,500719,NEW DELHI
344,GREATER KAILASH PART 1,500721,NEW DELHI
345,GREATER KAILASH PART 2,500723,NEW DELHI
346,GREATER NOIDA,500725,NEW DELHI
347,GREEN FIELDS COLONY,500727,NEW DELHI
348,GREEN PARK,500729,NEW DELHI
349,GT KARNAL ROAD,500731,NEW DELHI
350,GT ROAD,500733,NEW DELHI
351,GUJRANWALA TOWN,500735,NEW DELHI
352,GULABI BAGH,500737,NEW DELHI
353,GULMOHAR PARK,500739,NEW DELHI
354,GURGAON ROAD,500741,NEW DELHI
355,GURGAON SECTOR 12,500743,NEW DELHI
356,GURGAON SECTOR 14,500745,NEW DELHI
357,GURGAON SECTOR 15,500747,NEW DELHI
358,GURGAON SECTOR 53,500749,NEW DELHI
359,GURU NANAK PURA,500751,NEW DELHI
360,GURU TEG BAHADUR NAGAR,500753,NEW DELHI
361,GURUDWARA ROAD,500755,NEW DELHI
362,HAIDARPUR,500757,NEW DELHI
363,HAMILTON ROAD,500759,NEW DELHI
364,HAPUR ROAD,500761,NEW DELHI
365,HARGOVIND ENCLAVE,500763,NEW DELHI
366,HARI NAGAR,500765,NEW DELHI
367,HAROLA,500767,NEW DELHI
368,HASANPUR,500769,NEW DELHI
369,HAUZ KHAS,500771,NEW DELHI
370,HAUZ KHAS ENCLAVE,500773,NEW DELHI
371,HAUZ KHAS VILLAGE,500775,NEW DELHI
372,HAUZ QAZI,500777,NEW DELHI
373,I G I AIRPORT,500779,NEW DELHI
374,I N A MARKET,500781,NEW DELHI
375,I.T.O,500783,NEW DELHI
376,IMT MANESAR,500785,NEW DELHI
377,INA COLONY,500787,NEW DELHI
378,INDER LOK,500789,NEW DELHI
379,INDRALOK,500791,NEW DELHI
380,INDER PURI,500793,NEW DELHI
381,INDIRA GANDHI INTERNATIONAL AIRPORT,500795,NEW DELHI
382,INDIRA PURAM,500797,NEW DELHI
383,INDIRAPURAM,500799,NEW DELHI
384,INDRAPRASTHA EXTENSION,500801,NEW DELHI
385,ISLAMPUR,500803,NEW DELHI
386,ITO,500805,NEW DELHI
387,JACOMBPURA,500807,NEW DELHI
388,JAFFRABAD,500809,NEW DELHI
389,JAGATPURI,500811,NEW DELHI
390,JAHANGIR PURI,500813,NEW DELHI
391,JAHANGIRPURI,500815,NEW DELHI
392,JAIL ROAD,500817,NEW DELHI
393,JAMA MASJID,500819,NEW DELHI
394,JAMIA NAGAR,500821,NEW DELHI
395,JANAKPURI DISTRICT CENTRE,500823,NEW DELHI
396,JANGPURA,500825,NEW DELHI
397,JANGPURA EXTENSION,500827,NEW DELHI
398,JANPATH,500829,NEW DELHI
399,JASOLA,500831,NEW DELHI
400,JASOLA VIHAR,500833,NEW DELHI
401,JATWARA,500835,NEW DELHI
402,JAWAHAR COLONY,500837,NEW DELHI
403,JEEVAN NAGAR,500839,NEW DELHI
404,JHANDEWALAN,500841,NEW DELHI
405,JHANDEWALAN EXTENSION,500843,NEW DELHI
406,JHEEL,500845,NEW DELHI
407,JHEEL KHURENJA,500847,NEW DELHI
408,JHILMIL COLONY,500849,NEW DELHI
409,JHILMIL INDUSTRIAL AREA,500851,NEW DELHI
410,JIA SARAI,500853,NEW DELHI
411,JITAR NAGAR,500855,NEW DELHI
412,JOR BAGH,500857,NEW DELHI
413,JUNGPURA,500859,NEW DELHI
414,KAILASH COLONY,500861,NEW DELHI
415,KAILASH NAGAR,500863,NEW DELHI
416,KALKAJI,500865,NEW DELHI
417,KALKAJI DDA FLATS,500867,NEW DELHI
418,KALKAJI EXTENSION,500869,NEW DELHI
419,KALLUPURA,500871,NEW DELHI
420,KALU SARAI,500873,NEW DELHI
421,KALYANPURI,500875,NEW DELHI
422,KAMALA NAGAR,500877,NEW DELHI
423,KANTI NAGAR,500879,NEW DELHI
424,KAPASHERA,500881,NEW DELHI
425,KARAMPURA,500883,NEW DELHI
426,KARAMPURA WEST,500885,NEW DELHI
427,KARAWAL NAGAR,500887,NEW DELHI
428,KARKAR DUMA,500889,NEW DELHI
429,KARKARDOOMA,500891,NEW DELHI
430,KAROL BAGH,500893,NEW DELHI
431,KASHMIRI GATE,500895,NEW DELHI
432,KASTURBA GANDHI MARG,500897,NEW DELHI
433,KATWARIA SARAI,500899,NEW DELHI
434,KAUSHAMBI,500901,NEW DELHI
435,KAVI NAGAR,500903,NEW DELHI
436,KAVI NAGAR INDUSTRIAL AREA,500905,NEW DELHI
437,KESHAV PURAM,500907,NEW DELHI
438,KHAJURI KHAS,500909,NEW DELHI
439,KHAN MARKET,500911,NEW DELHI
440,KHANDSA ROAD,500913,NEW DELHI
441,KHANPUR,500915,NEW DELHI
442,KHARI BAOLI,500917,NEW DELHI
443,KHEL GAON MARG,500919,NEW DELHI
444,KHICHRIPUR,500921,NEW DELHI
445,KHIRKI EXTENTION,500923,NEW DELHI
446,KHORA COLONY,500925,NEW DELHI
447,KHUREJI KHAS,500927,NEW DELHI
448,KHYALA,500929,NEW DELHI
449,KIDWAI NAGAR,500931,NEW DELHI
450,KILOKRI,500933,NEW DELHI
451,KINGSWAY CAMP,500935,NEW DELHI
452,KIRTI NAGAR,500937,NEW DELHI
453,KIRTI NAGAR INDUSTRIAL AREA,500939,NEW DELHI
454,KISHAN GANJ,500941,NEW DELHI
455,KISHANGARH,500943,NEW DELHI
456,KONDLI,500945,NEW DELHI
457,KOTLA,500947,NEW DELHI
458,KOTLA MUBARAKPUR,500949,NEW DELHI
459,KRISHNA NAGAR,500951,NEW DELHI
460,KRISHNA NAGAR EAST,500953,NEW DELHI
461,KRISHNA PARK,500955,NEW DELHI
462,LADO SARAI,500957,NEW DELHI
463,LAJPAT NAGAR 2,500959,NEW DELHI
464,LAJPAT NAGAR 3,500961,NEW DELHI
465,LAJPAT NAGAR 4,500963,NEW DELHI
466,LAJPAT NAGAR PART 1,500965,NEW DELHI
467,LAJPAT NAGAR PART 2,500967,NEW DELHI
468,LAJPAT NAGAR PART 3,500969,NEW DELHI
469,LAJPAT NAGAR PART 4,500971,NEW DELHI
470,LAJPAT NAGAR-1,500973,NEW DELHI
471,LAJPAT NAGAR-2,500975,NEW DELHI
472,AJPAT NAGAR-4,500977,NEW DELHI
473,LAJPAT RAI MARKET,500979,NEW DELHI
474,LAJWANTI GARDEN,500981,NEW DELHI
475,LAKSHMI BAI NAGAR,500983,NEW DELHI
476,LAL KUAN,500985,NEW DELHI
477,LAWRANCE ROAD,500987,NEW DELHI
478,LAWRENCE ROAD,500989,NEW DELHI
479,LAXMI NAGAR,500991,NEW DELHI
480,LAXMI NAGAR MARKET,500993,NEW DELHI
481,LIBASPUR,500995,NEW DELHI
482,LODHI COLONY,500997,NEW DELHI
483,LODHI ESTATE,500999,NEW DELHI
484,LODHI ROAD,501001,NEW DELHI
485,LOHIA NAGAR,501003,NEW DELHI
486,LOHIYA NAGAR,501005,NEW DELHI
487,LONI,501007,NEW DELHI
488,LONI BHOPURA ROAD,501009,NEW DELHI
489,LONI ROAD,501011,NEW DELHI
490,MADANGIR,501013,NEW DELHI
491,MADANPUR KHADAR,501015,NEW DELHI
492,MADHU VIHAR,501017,NEW DELHI
493,MADIPUR,501019,NEW DELHI
494,MAHARANI BAGH,501021,NEW DELHI
495,MAHAVIR ENCLAVE,501023,NEW DELHI
496,MAHIPALPUR,501025,NEW DELHI
497,MAHIPALPUR EXTENSION,501027,NEW DELHI
498,MALIWARA,501029,NEW DELHI
499,MALKA GANJ,501031,NEW DELHI
500,MALVIYA NAGAR,501033,NEW DELHI
501,MAMURA,501035,NEW DELHI
502,MANDAWALI,501037,NEW DELHI
503,MANESAR,501039,NEW DELHI
504,MANGOLPUR KALAN,501041,NEW DELHI
505,MANGOLPURI,501043,NEW DELHI
506,MANGOLPURI INDUSTRIAL AREA PHASE 1,501045,NEW DELHI
507,MANGOLPURI INDUSTRIAL AREA PHASE 2,501047,NEW DELHI
508,MANSAROVAR GARDEN,501049,NEW DELHI
509,MANSAROWAR GARDEN,501051,NEW DELHI
510,MASJID MODH,501053,NEW DELHI
511,MASUDPUR,501055,NEW DELHI
512,MATHURA ROAD,501057,NEW DELHI
513,MAUJPUR,501059,NEW DELHI
514,MAYAPURI,501061,NEW DELHI
515,MAYAPURI INDUSTRIAL AREA PHASE 1,501063,NEW DELHI
516,MAYAPURI INDUSTRIAL AREA PHASE 2,501065,NEW DELHI
517,MAYUR VIHAR PHASE 1,501067,NEW DELHI
518,MAYUR VIHAR PHASE 2,501069,NEW DELHI
519,MAYUR VIHAR PHASE 3,501071,NEW DELHI
520,MAYUR VIHAR PHASE II,501073,NEW DELHI
521,MAYUR VIHAR PHASE III,501075,NEW DELHI
522,MEERA BAGH,501077,NEW DELHI
523,MEERUT ROAD,501079,NEW DELHI
524,MEERUT ROAD INDUSTRIAL AREA,501081,NEW DELHI
525,MEHRAULI,501083,NEW DELHI
526,MEHRAULI GURGAON ROAD,501085,NEW DELHI
527,MEHRAULI ROAD,501087,NEW DELHI
528,MIE,501089,NEW DELHI
529,MINTO ROAD,501091,NEW DELHI
530,MODEL BASTI,501093,NEW DELHI
531,MODEL TOWN PART 2,501095,NEW DELHI
532,MODEL TOWN PART 3,501097,NEW DELHI
533,MOHAMMAD PUR,501099,NEW DELHI
534,MOHAMMAD PUR MAJRI,501101,NEW DELHI
535,MOHAMMADPUR,501103,NEW DELHI
536,MOHAN CO-OPERATIVE INDUSTRIAL ESTATE,501105,NEW DELHI
537,MOHAN GARDEN,501107,NEW DELHI
538,MOHAN NAGAR,501109,NEW DELHI
539,MOLARBAND EXTENSION,501111,NEW DELHI
540,MORI GATE,501113,NEW DELHI
541,MOTI BAGH,501115,NEW DELHI
542,MOTI BAGH SOUTH,501117,NEW DELHI
543,MOTI NAGAR,501119,NEW DELHI
544,MOTIA KHAN,501121,NEW DELHI
545,MUJESAR,501123,NEW DELHI
546,MUKARJI PARK,501125,NEW DELHI
547,MUKHARJI NAGAR,501127,NEW DELHI
548,MUKUND NAGAR,501129,NEW DELHI
549,MUNDKA,501131,NEW DELHI
550,MUNIRKA,501133,NEW DELHI
551,NABI KARIM,501135,NEW DELHI
552,NAI SADAK,501137,NEW DELHI
553,NAI SARAK,501139,NEW DELHI
554,NAJAFGARH,501141,NEW DELHI
555,NAJAFGARH ROAD,501143,NEW DELHI
556,NAJAFGARH ROAD INDUSTRIAL AREA,501145,NEW DELHI
557,NANAKPURA,501147,NEW DELHI
558,NAND NAGARI,501149,NEW DELHI
559,NAND NAGRI,501151,NEW DELHI
560,NANGAL RAYA,501153,NEW DELHI
561,NANGLOI,501155,NEW DELHI
562,NANGLOI EXTENSION,501157,NEW DELHI
563,NANGLOI JAT,501159,NEW DELHI
564,NARAINA,501161,NEW DELHI
565,NARAINA INDUSTRIAL AREA,501163,NEW DELHI
566,NARAINA INDUSTRIAL AREA PHASE 1,501165,NEW DELHI
567,NARAINA INDUSTRIAL PH 1,501167,NEW DELHI
568,NARAINA VIHAR,501169,NEW DELHI
569,NARAYANA INDUSTRIAL AREA PHASE 2,501171,NEW DELHI
570,NARELA,501173,NEW DELHI
571,NARELA INDUSTRIAL AREA,501175,NEW DELHI
572,NATHUPUR,501177,NEW DELHI
573,NAV YUG MARKET,501179,NEW DELHI
574,NAVEEN SHAHDARA,501181,NEW DELHI
575,NAYA BAZAAR,501183,NEW DELHI
576,NAYA BAZAR,501185,NEW DELHI
577,NEB SARAI,501187,NEW DELHI
578,NEHRU ENCLAVE,501189,NEW DELHI
579,NEHRU PLACE,501191,NEW DELHI
580,NEHRU VIHAR,501193,NEW DELHI
581,NETAJI NAGAR,501195,NEW DELHI
582,NETAJI SUBHASH PLACE,501197,NEW DELHI
583,NEW ARYA NAGAR,501199,NEW DELHI
584,NEW ASHOK NAGAR,501201,NEW DELHI
585,NEW COLONY,501203,NEW DELHI
586,NEW FRIENDS COLONY,501205,NEW DELHI
587,NEW INDUSTRIAL TOWN SHIP,501207,NEW DELHI
588,NEW INDUSTRIAL TOWN SHIP 1,501209,NEW DELHI
589,NEW KONDLI,501211,NEW DELHI
590,NEW LAJPAT RAI MARKET,501213,NEW DELHI
591,NEW MODI NAGAR,501215,NEW DELHI
592,NEW MOTI NAGAR,501217,NEW DELHI
593,NEW RAILWAY ROAD,501219,NEW DELHI
594,NEW RAJDHANI ENCLAVE,501221,NEW DELHI
595,NEW RAJENDRA NAGAR,501223,NEW DELHI
596,NEW ROHTAK ROAD,501225,NEW DELHI
597,NEW SEEMAPURI,501227,NEW DELHI
598,NEW SILAMPUR,501229,NEW DELHI
599,NIRMAN VIHAR,501231,NEW DELHI
600,NIT,501233,NEW DELHI
601,NIT FARIDABAD,501235,NEW DELHI
602,NIT NO.1,501237,NEW DELHI
603,NIT NO.3,501239,NEW DELHI
604,NITI BAGH,501241,NEW DELHI
605,NIZAMUDDIN,501243,NEW DELHI
606,NIZAMUDDIN EAST,501245,NEW DELHI
607,NIZAMUDDIN WEST,501247,NEW DELHI
608,NOIDA-SECTOR 38,501249,NEW DELHI
609,NOIDA-SECTOR 38A,501251,NEW DELHI
610,NOIDA INSTITUTIONAL AREA,501253,NEW DELHI
611,NOIDA LINK ROAD,501255,NEW DELHI
612,NOIDA PHASE 2,501257,NEW DELHI
613,NOIDA SECTOR 1,501259,NEW DELHI
614,NOIDA SECTOR 10,501261,NEW DELHI
615,NOIDA SECTOR 11,501263,NEW DELHI
616,NOIDA SECTOR 12,501265,NEW DELHI
617,NOIDA SECTOR 15,501267,NEW DELHI
618,NOIDA SECTOR 16,501269,NEW DELHI
619,NOIDA SECTOR 18,501271,NEW DELHI
620,NOIDA SECTOR 19,501273,NEW DELHI
621,NOIDA SECTOR 2,501275,NEW DELHI
622,NOIDA SECTOR 22,501277,NEW DELHI
623,NOIDA SECTOR 26,501279,NEW DELHI
624,NOIDA SECTOR 27,501281,NEW DELHI
625,NOIDA SECTOR 29,501283,NEW DELHI
626,NOIDA SECTOR 31,501285,NEW DELHI
627,NOIDA SECTOR 37,501287,NEW DELHI
628,NOIDA SECTOR 38A,501289,NEW DELHI
629,NOIDA SECTOR 41,501291,NEW DELHI
630,NOIDA SECTOR 44,501293,NEW DELHI
631,NOIDA SECTOR 49,501295,NEW DELHI
632,NOIDA SECTOR 5,501297,NEW DELHI
633,NOIDA SECTOR 50,501299,NEW DELHI
634,NOIDA SECTOR 51,501301,NEW DELHI
635,NOIDA SECTOR 53,501303,NEW DELHI
636,NOIDA SECTOR 57,501305,NEW DELHI
637,NOIDA SECTOR 6,501307,NEW DELHI
638,NOIDA SECTOR 61,501309,NEW DELHI
639,NOIDA SECTOR 62,501311,NEW DELHI
640,NOIDA SECTOR 63,501313,NEW DELHI
641,NOIDA SECTOR 9,501315,NEW DELHI
642,OKHLA,501317,NEW DELHI
643,OKHLA INDUSTRAIL AREA,501319,NEW DELHI
644,OKHLA INDUSTRIAL AREA,501321,NEW DELHI
645,OKHLA INDUSTRIAL AREA PH 1,501323,NEW DELHI
646,OKHLA INDUSTRIAL AREA PH 2,501325,NEW DELHI
647,OKHLA INDUSTRIAL AREA PH 3,501327,NEW DELHI
648,OKHLA INDUSTRIAL AREA PHASE 1,501329,NEW DELHI
649,OKHLA INDUSTRIAL AREA PHASE 2,501331,NEW DELHI
650,OKHLA INDUSTRIAL AREA PHASE 3,501333,NEW DELHI
651,OKHLA INDUSTRIAL ESTATE,501335,NEW DELHI
652,OLD DLF COLONY,501337,NEW DELHI
653,OLD FARIDABAD,501339,NEW DELHI
654,OLD LAJPAT RAI MARKET,501341,NEW DELHI
655,OLD RAILWAY ROAD,501343,NEW DELHI
656,OLD RAJENDER NAGAR,501345,NEW DELHI
657,OLD RAJENDRA NAGAR,501347,NEW DELHI
658,PAHARGANJ,501349,NEW DELHI
659,PALAM,501351,NEW DELHI
660,PALAM COLONY,501353,NEW DELHI
661,PALAM VIHAR,501355,NEW DELHI
662,PALAM VIHAR ROAD,501357,NEW DELHI
663,PALAM VILLAGE,501359,NEW DELHI
664,PALIKA BAZAR,501361,NEW DELHI
665,PANCHKUIAN ROAD,501363,NEW DELHI
666,PANCHSHEEL ENCLAVE,501365,NEW DELHI
667,PANCHSHEEL PARK,501367,NEW DELHI
668,PANDAV NAGAR,501369,NEW DELHI
669,PANKHA ROAD,501371,NEW DELHI
670,PARLIAMENT STREET,501373,NEW DELHI
671,PARWANA ROAD,501375,NEW DELHI
672,PASCHIM PURI,501377,NEW DELHI
673,EAST PATEL NAGAR,501379,NEW DELHI
674,PATIALA HOUSE,501381,NEW DELHI
675,PATIALA HOUSE COURT,501383,NEW DELHI
676,PATPARGANJ,501385,NEW DELHI
677,PATPARGANJ INDUSTRIAL AREA,501387,NEW DELHI
678,PEERA GARHI,501389,NEW DELHI
679,PIRA GARHI,501391,NEW DELHI
680,PRAGATI MAIDAN,501393,NEW DELHI
681,PRASHANT VIHAR,501395,NEW DELHI
682,PRATAP NAGAR,501397,NEW DELHI
683,PREET VIHAR,501399,NEW DELHI
684,PREM NAGAR,501401,NEW DELHI
685,PRIYADARSHINI VIHAR,501403,NEW DELHI
686,PULPEHLADPUR,501405,NEW DELHI
687,PUNJABI BAGH EAST,501407,NEW DELHI
688,PUNJABI BAGH EXTENSION,501409,NEW DELHI
689,PUNJABI BAGH WEST,501411,NEW DELHI
690,PUSA ROAD,501413,NEW DELHI
691,PUSHP VIHAR,501415,NEW DELHI
692,QUTAB INSTITUTIONAL AREA,501417,NEW DELHI
693,R K PURAM,501419,NEW DELHI
694,R K PURAM SECTOR 1,501421,NEW DELHI
695,R K PURAM SECTOR 12,501423,NEW DELHI
696,R K PURAM SECTOR 6,501425,NEW DELHI
697,R K PURAM SECTOR 8,501427,NEW DELHI
698,R K PURAM SECTOR 9,501429,NEW DELHI
699,RADHEYPURI EXTENSION,501431,NEW DELHI
700,RAGHUBIR NAGAR,501433,NEW DELHI
701,RAILWAY ROAD,501435,NEW DELHI
702,RAILWAY STATION COLONY,501437,NEW DELHI
703,RAJ NAGAR,501439,NEW DELHI
704,RAJA GARDEN,501441,NEW DELHI
705,RAJAURI GARDEN,501443,NEW DELHI
706,RAJEEV NAGAR,501445,NEW DELHI
707,RAJENDER NAGAR,501447,NEW DELHI
708,RAJENDRA NAGAR,501449,NEW DELHI
709,RAJENDRA PLACE,501451,NEW DELHI
710,RAJGARH COLONY,501453,NEW DELHI
711,RAJIV NAGAR,501455,NEW DELHI
712,RAJOURI GARDEN,501457,NEW DELHI
713,RAM NAGAR,501459,NEW DELHI
714,RAMAKRISHNA PURAM,501461,NEW DELHI
715,RAMESH NAGAR,501463,NEW DELHI
716,RAMKRISHNAPURAM,501465,NEW DELHI
717,RAMPURA,501467,NEW DELHI
718,RAMTERAM ROAD,501469,NEW DELHI
719,RANA PRATAP BAGH,501471,NEW DELHI
720,RANGPURI,501473,NEW DELHI
721,RANI BAGH,501475,NEW DELHI
722,RANI JHANSI ROAD,501477,NEW DELHI
723,RANJIT NAGAR,501479,NEW DELHI
724,RED FORT,501481,NEW DELHI
725,ROHINI-SECTOR 13,501483,NEW DELHI
726,ROHINI-SECTOR 14,501485,NEW DELHI
727,ROHINI-SECTOR 2,501487,NEW DELHI
728,ROHINI-SECTOR 3,501489,NEW DELHI
729,ROHINI-SECTOR 9,501491,NEW DELHI
730,ROHINI SEC-16,501493,NEW DELHI
731,ROHINI SECTOR 1,501495,NEW DELHI
732,ROHINI SECTOR 10,501497,NEW DELHI
733,ROHINI SECTOR 11,501499,NEW DELHI
734,ROHINI SECTOR 15,501501,NEW DELHI
735,ROHINI SECTOR 16,501503,NEW DELHI
736,ROHINI SECTOR 17,501505,NEW DELHI
737,ROHINI SECTOR 18,501507,NEW DELHI
738,ROHINI SECTOR 2,501509,NEW DELHI
739,ROHINI SECTOR 24,501511,NEW DELHI
740,ROHINI SECTOR 3,501513,NEW DELHI
741,ROHINI SECTOR 4,501515,NEW DELHI
742,ROHINI SECTOR 5,501517,NEW DELHI
743,ROHINI SECTOR 6,501519,NEW DELHI
744,ROHINI SECTOR 7,501521,NEW DELHI
745,ROHINI SECTOR 8,501523,NEW DELHI
746,ROHINI SECTOR 9,501525,NEW DELHI
747,ROHTAK ROAD,501527,NEW DELHI
748,ROHTASH NAGAR EAST,501529,NEW DELHI
749,ROHTASH NAGAR WEST,501531,NEW DELHI
750,ROOP NAGAR,501533,NEW DELHI
751,ROSHAN PURA,501535,NEW DELHI
752,ROSHANARA ROAD,501537,NEW DELHI
753,SADAR BAZAAR,501539,NEW DELHI
754,SADAR THANA ROAD,501541,NEW DELHI
755,SADATPUR,501543,NEW DELHI
756,SAFDARJANJ ENCLAVE,501545,NEW DELHI
757,SAFDARJUNG DEVELOPMENT AREA,501547,NEW DELHI
758,SAFDARJUNG ENCLAVE,501549,NEW DELHI
759,SAGAR PUR,501551,NEW DELHI
760,SAGARPUR WEST,501553,NEW DELHI
761,SAHIBABAD,501555,NEW DELHI
762,SAHIBABAD INDUSTRIAL AREA,501557,NEW DELHI
763,SAHIBABAD INDUSTRIAL AREA SITE 4,501559,NEW DELHI
764,SAINI ENCLAVE,501561,NEW DELHI
765,SAINIK FARM,501563,NEW DELHI
766,SAIYAD UL AJAIB,501565,NEW DELHI
767,SAKET,501567,NEW DELHI
768,SAMAIPUR,501569,NEW DELHI
769,SAMAYPUR,501571,NEW DELHI
770,SAMAYPUR BADLI,501573,NEW DELHI
771,SANGAM VIHAR,501575,NEW DELHI
772,SANJAY COLONY/GHAZIABAD,501577,NEW DELHI
773,SANJAY GANDHI MEMORIAL NAGAR,501579,NEW DELHI
774,SANJAY GANDHI TRANSPORT NAGAR,501581,NEW DELHI
775,SANSAD MARG,501583,NEW DELHI
776,SANT NAGAR,501585,NEW DELHI
777,SARAI JULENA,501587,NEW DELHI
778,SARAI KHWAJA,501589,NEW DELHI
779,SARAI ROHILA,501591,NEW DELHI
780,SARAI ROHILLA,501593,NEW DELHI
781,SARASWATI VIHAR,501595,NEW DELHI
782,SARDAR BAZAR,501597,NEW DELHI
783,SARITA VIHAR,501599,NEW DELHI
784,SAROJANI NAGAR,501601,NEW DELHI
785,SAROJANI NAGAR MARKET,501603,NEW DELHI
786,SAROJINI NAGAR,501605,NEW DELHI
787,SARVAPRIYA VIHAR,501607,NEW DELHI
788,SARVODAYA ENCLAVE,501609,NEW DELHI
789,SATYA NIKETAN,501611,NEW DELHI
790,SAVITA VIHAR,501613,NEW DELHI
791,SAVITRI NAGAR,501615,NEW DELHI
792,SECTOR 1-NOIDA,501617,NEW DELHI
793,SECTOR 10-NOIDA,501619,NEW DELHI
794,SECTOR 10 NOIDA,501621,NEW DELHI
795,SECTOR 11-NOIDA,501623,NEW DELHI
796,SECTOR 11-NOIDA,501625,NEW DELHI
797,SECTOR 12-GURGAON,501627,NEW DELHI
798,SECTOR 12-NOIDA,501629,NEW DELHI
799,SECTOR 12 NOIDA,501631,NEW DELHI
800,SECTOR 14-GURGAON,501633,NEW DELHI
801,SECTOR 14 GURGAON,501635,NEW DELHI
802,SECTOR 15-NOIDA,501637,NEW DELHI
803,SECTOR 15 A-NOIDA,501639,NEW DELHI
804,SECTOR 15 NOIDA,501641,NEW DELHI
805,SECTOR 15-I-GURGAON,501643,NEW DELHI
806,SECTOR 15-II-GURGAON,501645,NEW DELHI
807,SECTOR 16-NOIDA,501647,NEW DELHI
808,SECTOR 16 A-NOIDA,501649,NEW DELHI
809,SECTOR 16 NOIDA,501651,NEW DELHI
810,SECTOR 17-GURGAON,501653,NEW DELHI
811,SECTOR 18-NOIDA,501655,NEW DELHI
812,SECTOR 18-GURGAON,501657,NEW DELHI
813,SECTOR 18 GURGAON,501659,NEW DELHI
814,SECTOR 18 NOIDA,501661,NEW DELHI
815,SECTOR 19-NOIDA,501663,NEW DELHI
816,SECTOR 19 NOIDA,501665,NEW DELHI
817,SECTOR 2-NOIDA,501667,NEW DELHI
818,SECTOR 2 NOIDA,501669,NEW DELHI
819,SECTOR 20-NOIDA,501671,NEW DELHI
820,SECTOR 21-NOIDA,501673,NEW DELHI
821,SECTOR 22-GURGAON,501675,NEW DELHI
822,SECTOR 22-NOIDA,501677,NEW DELHI
823,SECTOR 22 NOIDA,501679,NEW DELHI
824,SECTOR 23-GURGAON,501681,NEW DELHI
825,SECTOR 24-NOIDA,501683,NEW DELHI
826,SECTOR 25-NOIDA,501685,NEW DELHI
827,SECTOR 25 A-NOIDA,501687,NEW DELHI
828,SECTOR 26-NOIDA,501689,NEW DELHI
829,SECTOR 26 NOIDA,501691,NEW DELHI
830,SECTOR 27-NOIDA,501693,NEW DELHI
831,SECTOR 27 NOIDA,501695,NEW DELHI
832,SECTOR 28-NOIDA,501697,NEW DELHI
833,SECTOR 29-GURGAON,501699,NEW DELHI
834,SECTOR 29 NOIDA,501701,NEW DELHI
835,SECTOR 3-GURGAON,501703,NEW DELHI
836,SECTOR 3-NOIDA,501705,NEW DELHI
837,SECTOR 3 NOIDA,501707,NEW DELHI
838,SECTOR 30-NOIDA,501709,NEW DELHI
839,SECTOR 31-GURGAON,501711,NEW DELHI
840,SECTOR 31-NOIDA,501713,NEW DELHI
841,SECTOR 31 GURGAON,501715,NEW DELHI
842,SECTOR 31 NOIDA,501717,NEW DELHI
843,SECTOR 32-GURGAON,501719,NEW DELHI
844,SECTOR 33-NOIDA,501721,NEW DELHI
845,SECTOR 34-GURGAON,501723,NEW DELHI
846,SECTOR 34-NOIDA,501725,NEW DELHI
847,SECTOR 35-NOIDA,501727,NEW DELHI
848,SECTOR 37-GURGAON,501729,NEW DELHI
849,SECTOR 37-NOIDA,501731,NEW DELHI
850,SECTOR 37 GURGAON,501733,NEW DELHI
851,SECTOR 39-NOIDA,501735,NEW DELHI
852,SECTOR 4-GURGAON,501737,NEW DELHI
853,SECTOR 4-NOIDA,501739,NEW DELHI
854,SECTOR 4 GURGAON,501741,NEW DELHI
855,SECTOR 4 NOIDA,501743,NEW DELHI
856,SECTOR 40-GURGAON,501745,NEW DELHI
857,SECTOR 40-NOIDA,501747,NEW DELHI
858,SECTOR 41-NOIDA,501749,NEW DELHI
859,SECTOR 41 NOIDA,501751,NEW DELHI
860,SECTOR 44-NOIDA,501753,NEW DELHI
861,SECTOR 47-GURGAON,501755,NEW DELHI
862,SECTOR 49-NOIDA,501757,NEW DELHI
863,SECTOR 49 NOIDA,501759,NEW DELHI
864,SECTOR 5-GURGAON,501761,NEW DELHI
865,SECTOR 5-NOIDA,501763,NEW DELHI
866,SECTOR 5 GURGAON,501765,NEW DELHI
867,SECTOR 5 NOIDA,501767,NEW DELHI
868,SECTOR 50-NOIDA,501769,NEW DELHI
869,SECTOR 50 NOIDA,501771,NEW DELHI
870,SECTOR 51-NOIDA,501773,NEW DELHI
871,SECTOR 51 NOIDA,501775,NEW DELHI
872,SECTOR 52-NOIDA,501777,NEW DELHI
873,SECTOR 53-GURGAON,501779,NEW DELHI
874,SECTOR 53-NOIDA,501781,NEW DELHI
875,SECTOR 54-GURGAON,501783,NEW DELHI
876,SECTOR 55-GURGAON,501785,NEW DELHI
877,SECTOR 55-NOIDA,501787,NEW DELHI
878,SECTOR 56-GURGAON,501789,NEW DELHI
879,SECTOR 56-NOIDA,501791,NEW DELHI
880,SECTOR 57-NOIDA,501793,NEW DELHI
881,SECTOR 57 NOIDA,501795,NEW DELHI
882,SECTOR 58-NOIDA,501797,NEW DELHI
883,SECTOR 58 NOIDA,501799,NEW DELHI
884,SECTOR 59-NOIDA,501801,NEW DELHI
885,SECTOR 6-GURGAON,501803,NEW DELHI
886,SECTOR 6-NOIDA,501805,NEW DELHI
887,SECTOR 6 NOIDA,501807,NEW DELHI
888,SECTOR 60-NOIDA,501809,NEW DELHI
889,SECTOR 61-NOIDA,501811,NEW DELHI
890,SECTOR 61 NOIDA,501813,NEW DELHI
891,SECTOR 62-NOIDA,501815,NEW DELHI
892,SECTOR 62 NOIDA,501817,NEW DELHI
893,SECTOR 63 NOIDA,501819,NEW DELHI
894,SECTOR 7-GURGAON,501821,NEW DELHI
895,SECTOR 7-NOIDA,501823,NEW DELHI
896,SECTOR 8-NOIDA,501825,NEW DELHI
897,SECTOR 8 NOIDA,501827,NEW DELHI
898,SECTOR 9-NOIDA,501829,NEW DELHI
899,SECTOR 9 NOIDA,501831,NEW DELHI
900,SECTOR10-FARIDABAD,501833,NEW DELHI
901,SECTOR11-FARIDABAD,501835,NEW DELHI
902,SECTOR12-FARIDABAD,501837,NEW DELHI
903,SECTOR14-FARIDABAD,501839,NEW DELHI
904,SECTOR15-FARIDABAD,501841,NEW DELHI
905,SECTOR15 FARIDABAD,501843,NEW DELHI
906,SECTOR15A-FARIDABAD,501845,NEW DELHI
907,SECTOR15A FARIDABAD,501847,NEW DELHI
908,SECTOR16-FARIDABAD,501849,NEW DELHI
909,SECTOR16 FARIDABAD,501851,NEW DELHI
910,SECTOR16A-FARIDABAD,501853,NEW DELHI
911,SECTOR17-FARIDABAD,501855,NEW DELHI
912,SECTOR19-FARIDABAD,501857,NEW DELHI
913,SECTOR21C-FARIDABAD,501859,NEW DELHI
914,SECTOR23-FARIDABAD,501861,NEW DELHI
915,SECTOR24-FARIDABAD,501863,NEW DELHI
916,SECTOR24 FARIDABAD,501865,NEW DELHI
917,SECTOR25-FARIDABAD,501867,NEW DELHI
918,SECTOR27A-FARIDABAD,501869,NEW DELHI
919,SECTOR28-FARIDABAD,501871,NEW DELHI
920,SECTOR29-FARIDABAD,501873,NEW DELHI
921,SECTOR31-FARIDABAD,501875,NEW DELHI
922,SECTOR37-FARIDABAD,501877,NEW DELHI
923,SECTOR4-GHAZIABAD,501879,NEW DELHI
924,SECTOR5-GHAZIABAD,501881,NEW DELHI
925,SECTOR59-FARIDABAD,501883,NEW DELHI
926,SECTOR6-FARIDABAD,501885,NEW DELHI
927,SECTOR9-FARIDABAD,501887,NEW DELHI
928,SEELAMPUR,501889,NEW DELHI
929,SEEMAPURI OLD,501891,NEW DELHI
930,SEIKH SARAI,501893,NEW DELHI
931,SEIKH SARAI PHASE 2,501895,NEW DELHI
932,SEWA NAGAR,501897,NEW DELHI
933,SHADIPUR,501899,NEW DELHI
934,SHAHDARA,501901,NEW DELHI
935,SHAHPUR JAT,501903,NEW DELHI
936,SHAKARPUR,501905,NEW DELHI
937,SHAKARPUR EXTENSION,501907,NEW DELHI
938,SHAKARPUR KHAS,501909,NEW DELHI
939,SHAKTI NAGAR,501911,NEW DELHI
940,SHAKUR BASTI,501913,NEW DELHI
941,SHAKUR PUR,501915,NEW DELHI
942,SHAKURPUR,501917,NEW DELHI
943,SHAKURPUR COLONY,501919,NEW DELHI
944,SHALIMAR BAGH,501921,NEW DELHI
945,SHALIMAR GARDEN,501923,NEW DELHI
946,SHALIMAR GARDEN EXTENTION 1,501925,NEW DELHI
947,SHALIMAR GARDEN EXTENTION 2,501927,NEW DELHI
948,SHALIMAR PARK,501929,NEW DELHI
949,SHANKAR NAGAR,501931,NEW DELHI
950,SHANTI NIKETAN,501933,NEW DELHI
951,SHARDA PURI,501935,NEW DELHI
952,SHARDHANAND MARG,501937,NEW DELHI
953,SHASTRI NAGAR,501939,NEW DELHI
954,SHASTRI PARK,501941,NEW DELHI
955,SHEIK SARAI,501943,NEW DELHI
956,SHEIKH SARAI,501945,NEW DELHI
957,SHEIKH SARAI PART 1,501947,NEW DELHI
958,SHIV NAGAR,501949,NEW DELHI
959,SHIV PURI,501951,NEW DELHI
960,SHIVALIK,501953,NEW DELHI
961,SHIVPURI,501955,NEW DELHI
962,SHRESHTHA VIHAR,501957,NEW DELHI
963,SIKANDARPUR,501959,NEW DELHI
964,SILAMPUR,501961,NEW DELHI
965,SIRI FORT ROAD,501963,NEW DELHI
966,SIRKIWALAN,501965,NEW DELHI
967,SITARAM BAZAR,501967,NEW DELHI
968,SOHNA ROAD,501969,NEW DELHI
969,SONIPAT,501971,NEW DELHI
970,SOUTH CITY 1,501973,NEW DELHI
971,SOUTH EXTENSION 1,501975,NEW DELHI
972,SOUTH EXTENSION 2,501977,NEW DELHI
973,SOUTH EXTENSION PART 1,501979,NEW DELHI
974,SOUTH EXTENSION PART 2,501981,NEW DELHI
975,SOUTH PATEL NAGAR,501983,NEW DELHI
976,SRINIVASPURI,501985,NEW DELHI
977,SUBHASH NAGAR,501987,NEW DELHI
978,SUKHDEV VIHAR,501989,NEW DELHI
979,SUKHRALI,501991,NEW DELHI
980,SULTAN PURI,501993,NEW DELHI
981,SULTANPUR,501995,NEW DELHI
982,SULTANPURI,501997,NEW DELHI
983,SUNDAR NAGAR,501999,NEW DELHI
984,SUNDER NAGARI,502001,NEW DELHI
985,SUNDER VIHAR,502003,NEW DELHI
986,SUPREME COURT,502005,NEW DELHI
987,SURAJMAL VIHAR,502007,NEW DELHI
988,SURYA NAGAR,502009,NEW DELHI
989,SUSHANT LOK,502011,NEW DELHI
990,SUSHANT LOK PHASE 1,502013,NEW DELHI
991,SUSHANT LOK PHASE II,502015,NEW DELHI
992,SWASTHYA VIHAR,502017,NEW DELHI
993,TAGORE GARDEN,502019,NEW DELHI
994,TAIMOOR NAGAR,502021,NEW DELHI
995,TANK ROAD,502023,NEW DELHI
996,TIGRI,502025,NEW DELHI
997,TILAK MARG,502027,NEW DELHI
998,TIMARPUR,502029,NEW DELHI
999,TIS HAZARI,502031,NEW DELHI
1000,TIS HAZARI COURT,502033,NEW DELHI
1001,TOLSTOY MARG,502035,NEW DELHI
1002,TRI NAGAR,502037,NEW DELHI
1003,TRILOKPURI,502039,NEW DELHI
1004,TUGHLAKABAD EXTENSION,502041,NEW DELHI
1005,TUGHLAQABAD,502043,NEW DELHI
1006,TUGHLAQABAD EXTENSION,502045,NEW DELHI
1007,TURAB NAGAR,502047,NEW DELHI
1008,TURKMAN GATE,502049,NEW DELHI
1009,UDAY PARK,502051,NEW DELHI
1010,UDYOG NAGAR,502053,NEW DELHI
1011,UDYOG VIHAR,502055,NEW DELHI
1012,UDYOG VIHAR-INDUSTRIAL AREA PHASE 2,502057,NEW DELHI
1013,UDYOG VIHAR-INDUSTRIAL AREA PHASE 3,502059,NEW DELHI
1014,UDYOG VIHAR-INDUSTRIAL AREA PHASE 4,502061,NEW DELHI
1015,UDYOG VIHAR INDUSTRIAL AREA PHASE 2,502063,NEW DELHI
1016,UDYOG VIHAR INDUSTRIAL AREA PHASE 3,502065,NEW DELHI
1017,UDYOG VIHAR INDUSTRIAL AREA PHASE 4,502067,NEW DELHI
1018,UDYOG VIHAR INDUSTRIAL AREA VI,502069,NEW DELHI
1019,UDYOG VIHAR PHASE 4,502071,NEW DELHI
1020,UDYOG VIHAR PHASE 5,502073,NEW DELHI
1021,VAISHALI,502075,NEW DELHI
1022,VAISHALI SECTOR 1,502077,NEW DELHI
1023,VAISHALI SECTOR 2,502079,NEW DELHI
1024,VAISHALI SECTOR 3,502081,NEW DELHI
1025,VAISHALI SECTOR 4,502083,NEW DELHI
1026,VAISHALI SECTOR 5,502085,NEW DELHI
1027,VASANT ENCLAVE,502087,NEW DELHI
1028,VASANT KUNJ,502089,NEW DELHI
1029,VASANT KUNJ-SECTOR A,502091,NEW DELHI
1030,VASANT KUNJ-SECTOR B,502093,NEW DELHI
1031,VASANT KUNJ-SECTOR C,502095,NEW DELHI
1032,VASANT KUNJ-SECTOR D,502097,NEW DELHI
1033,VASANT KUNJ SECTOR A,502099,NEW DELHI
1034,VASHISHT PARK,502101,NEW DELHI
1035,VASUNDHARA,502103,NEW DELHI
1036,VIGYAN VIHAR,502105,NEW DELHI
1037,VIJAY ENCLAVE,502107,NEW DELHI
1038,VIJAY NAGAR,502109,NEW DELHI
1039,VIKAS MARG,502111,NEW DELHI
1040,VIKASPURI,502113,NEW DELHI
1041,VINOD NAGAR,502115,NEW DELHI
1042,VINOD NAGAR EAST,502117,NEW DELHI
1043,VINOD NAGAR WEST,502119,NEW DELHI
1044,VISHNU GARDEN,502121,NEW DELHI
1045,VISHWAS NAGAR,502123,NEW DELHI
1046,VIVEK VIHAR,502125,NEW DELHI
1047,WAZIR NAGAR,502127,NEW DELHI
1048,WAZIRABAD,502129,NEW DELHI
1049,WAZIRPUR,502131,NEW DELHI
1050,WAZIRPUR COLONY,502133,NEW DELHI
1051,WAZIRPUR INDUSTRIAL AREA,502135,NEW DELHI
1052,WEST PATEL NAGAR,502137,NEW DELHI
1053,YAMUNA VIHAR,502139,NEW DELHI
1054,YOJANA VIHAR,502141,NEW DELHI
1055,YUSUF SARAI,502143,NEW DELHI
1056,ZAKIR NAGAR,502145,NEW DELHI
1057,ZAMRUDPUR,502147,NEW DELHI
1058,A K MARKET,502149,NEW DELHI
1059,ALIGANJ,502151,NEW DELHI
1060,ALIPUR,502153,NEW DELHI
1061,AMAR COLONY,502155,NEW DELHI
1062,AMBERHAI,502157,NEW DELHI
1063,ANANDWAS,502159,NEW DELHI
1064,ANSARI NAGAR,502161,NEW DELHI
1065,APS COLONY,502163,NEW DELHI
1066,A F PALAM,502165,NEW DELHI
1067,ARJUN GARH,502167,NEW DELHI
1068,ASHOKA PARK EXTENSION,502169,NEW DELHI
1069,AUCHANDI,502171,NEW DELHI
1070,AAYA NAGAR,502173,NEW DELHI
1071,BADOSARAI,502175,NEW DELHI
1072,BAGROLA,502177,NEW DELHI
1073,BAKHTAWARPUR,502179,NEW DELHI
1074,BAKKARWALA,502181,NEW DELHI
1075,BAKOLI,502183,NEW DELHI
1076,BALBIR NAGAR,502185,NEW DELHI
1077,BANK STREET,502187,NEW DELHI
1078,BAPROLA,502189,NEW DELHI
1079,BARODA HOUSE,502191,NEW DELHI
1080,BHARTHAL,502193,NEW DELHI
1081,BARWALA,502195,NEW DELHI
1082,BENGALI MARKET,502197,NEW DELHI
1083,BHAGAT SINGH MARKET,502199,NEW DELHI
1084,BHORGARH,502201,NEW DELHI
1085,BIRLA LINES,502203,NEW DELHI
1086,BSF CAMP TIGRI,502205,NEW DELHI
1087,BTPS BADARPUR THERMAL POWER STATION,502207,NEW DELHI
1088,CGO COMPLEX,502209,NEW DELHI
1089,CHANDAN HOLA,502211,NEW DELHI
1090,CHAND NAGAR,502213,NEW DELHI
1091,CHANDPUR,502215,NEW DELHI
1092,CHHATARPUR,502217,NEW DELHI
1093,CHAUKHANDI,502219,NEW DELHI
1094,CHHAWLA,502221,NEW DELHI
1095,CHILLA,502223,NEW DELHI
1096,CONSTITUTION HOUSE,502225,NEW DELHI
1097,CRPF JHARODA KALAN,502227,NEW DELHI
1098,DADA GHOSH BHAWAN,502229,NEW DELHI
1099,DAREEBA,502231,NEW DELHI
1100,DARGAH SHARIF,502233,NEW DELHI
1101,DARYAPUR KALAN,502235,NEW DELHI
1102,DAULATPUR,502237,NEW DELHI
1103,D C GOYLA,502239,NEW DELHI
1104,D C NANGLI SAKRAVATI,502241,NEW DELHI
1105,DELHI ENGINEERING COLLEGE,502243,NEW DELHI
1106,DELHI INDUSTRAIL AREA,502245,NEW DELHI
1107,DELHI PATEL NAGAR,502247,NEW DELHI
1108,DELHI SADAR BAZAR,502249,NEW DELHI
1109,DELHI UNIVERSITY,502251,NEW DELHI
1110,DEOLI,502253,NEW DELHI
1111,DERA,502255,NEW DELHI
1112,DHANSA,502257,NEW DELHI
1113,DICHAON KALAN,502259,NEW DELHI
1114,DINDARPUR,502261,NEW DELHI
1115,DISTRICT COURT,502263,NEW DELHI
1116,DK MOHAN GARDEN,502265,NEW DELHI
1117,BAZAR ROAD,502267,NEW DELHI
1118,OLD SEEMAPURI,502269,NEW DELHI
1119,TECHNOLOGY BHAVAN,502271,NEW DELHI
1120,TEHKHAND EDSO,502273,NEW DELHI
1121,TELIWARA,502275,NEW DELHI
1122,TIKRI KALAN,502277,NEW DELHI
1123,TIKRI KHURD,502279,NEW DELHI
1124,TILAK NAGAR EAST,502281,NEW DELHI
1125,TILANGPUR KOTLA,502283,NEW DELHI
1126,TUGHLAKABAD RAILWAY COLONY,502285,NEW DELHI
1127,UDYOG BHAWAN,502287,NEW DELHI
1128,UJWA,502289,NEW DELHI
1129,UNION PUBLIC SERVICE COMMISSION,502291,NEW DELHI
1130,KARALA,502293,NEW DELHI
1131,KANYA,502295,NEW DELHI
1132,KANGAN HERI,502297,NEW DELHI
1133,KAMLA NAGAR,502299,NEW DELHI
1134,IIT HAUZ KHAS,502301,NEW DELHI
1135,JAFFARPUR KALAN,502303,NEW DELHI
1136,KHAIRA,502305,NEW DELHI
1137,KHAMPUR,502307,NEW DELHI
1138,KHAJURI KHAS,502309,NEW DELHI
1139,KHERA DABUR,502311,NEW DELHI
1140,KHERA KALAN,502313,NEW DELHI
1141,KHERA KHURD,502315,NEW DELHI
1142,KIDWAI NAGAR EAST,502317,NEW DELHI
1143,KIDWAI NAGAR WEST,502319,NEW DELHI
1144,KIRBY PLACE,502321,NEW DELHI
1145,KRISHI BHAWAN,502323,NEW DELHI
1146,KRISHNA MARKET,502325,NEW DELHI
1147,LADPUR,502327,NEW DELHI
1148,LADY HARDINGE MEDICAL COLLEGE,502329,NEW DELHI
1149,LAJPAT NAGAR,502331,NEW DELHI
1150,LAL KUAN EDSO,502333,NEW DELHI
1151,LAMPUR,502335,NEW DELHI
1152,LAXMI BAI NAGAR,502337,NEW DELHI
1153,L M NAGAR INDUSTRIAL AREA,502339,NEW DELHI
1154,LODHI COLONY MARKET,502341,NEW DELHI
1155,LONI ROAD HOUSING COMPLEX,502343,NEW DELHI
1156,L R MARKET,502345,NEW DELHI
1157,MADIPUR SLUM QUARTERS,502347,NEW DELHI
1158,MADIPUR VILLAGE,502349,NEW DELHI
1159,MAHABIR NAGAR,502351,NEW DELHI
1160,MAIDANGARHI,502353,NEW DELHI
1161,MAJRADABAS,502355,NEW DELHI
1162,MALCHA MARG,502357,NEW DELHI
1163,MALIKPUR,502359,NEW DELHI
1164,MANDAWALI FAZALPUR,502361,NEW DELHI
1165,MANDI,502363,NEW DELHI
1166,MANGOLPURI,502365,NEW DELHI
1167,MANSAROVAR PARK,502367,NEW DELHI
1168,MASJIDMOTH GREATER KAILASH,502369,NEW DELHI
1169,MASOODPUR,502371,NEW DELHI
1170,MASTER PRITHVINATH MARG,502373,NEW DELHI
1171,MATIALA,502375,NEW DELHI
1172,MAURYA ENCLAVE,502377,NEW DELHI
1173,MBS NAGAR,502379,NEW DELHI
1174,MITRAON,502381,NEW DELHI
1175,MUBARAKPUR DABAS,502383,NEW DELHI
1176,MULTANI DHANDA,502385,NEW DELHI
1177,MUNDELA KALAN,502387,NEW DELHI
1178,NANGAL DEWAT,502389,NEW DELHI
1179,NANGAL THAKRAN,502391,NEW DELHI
1180,NARAINA VILLAGE,502393,NEW DELHI
1181,NASIRPUR,502395,NEW DELHI
1182,NATHUPURA,502397,NEW DELHI
1183,NATIONAL PHYSICAL LABORATORY,502399,NEW DELHI
1184,NAUROJI NAGAR,502401,NEW DELHI
1185,NAYA BANS,502403,NEW DELHI
1186,NEHRU NAGAR,502405,NEW DELHI
1187,NEW DELHI,502407,NEW DELHI
1188,NEW DELHI GPO,502409,NEW DELHI
1189,NEW MULTAN NAGAR,502411,NEW DELHI
1190,NEW USMANPUR,502413,NEW DELHI
1191,NI AREA,502415,NEW DELHI
1192,NIE CAMPUS,502417,NEW DELHI
1193,NILOTHI,502419,NEW DELHI
1194,NIMRI,502421,NEW DELHI
1195,NIRANKARI COLONY,502423,NEW DELHI
1196,NIRMAN BHAVAN,502425,NEW DELHI
1197,NIZAMPUR,502427,NEW DELHI
1198,NORTH AVENUE,502429,NEW DELHI
1199,NSIT DWARKA,502431,NEW DELHI
1200,OKHLA CANAL EDBO,502433,NEW DELHI
1201,RANI KHERA,502435,NEW DELHI
1202,RAOTA,502437,NEW DELHI
1203,RASHTRAPATI BHAVAN,502439,NEW DELHI
1204,REWLA KHANPUR,502441,NEW DELHI
1205,RITHALA,502443,NEW DELHI
1206,ROHTASH NAGAR,502445,NEW DELHI
1207,RR HOSPITAL,502447,NEW DELHI
1208,SADIQ NAGAR,502449,NEW DELHI
1209,SAFDARJUNG AIRPORT,502451,NEW DELHI
1210,SAMALKHA,502453,NEW DELHI
1211,SANOTH,502455,NEW DELHI
1212,HIMMATPURI,502457,NEW DELHI
1213,HIRAN KUDNA,502459,NEW DELHI
1214,HOLAMBI KALAN,502461,NEW DELHI
1215,INDIRA GANDHI NATIONAL OPEN UNIVERSITY,502463,NEW DELHI
1216,INDIRA PARK,502465,NEW DELHI
1217,INDRAPRASTHA,502467,NEW DELHI
1218,ISSAPUR,502469,NEW DELHI
1219,HAMDARD NAGAR,502471,NEW DELHI
1220,HARI NAGAR ASHRAM,502473,NEW DELHI
1221,HASTAL VILLAGE,502475,NEW DELHI
1222,GANESHPURA,502477,NEW DELHI
1223,HAREVELI,502479,NEW DELHI
1224,GHEORA,502481,NEW DELHI
1225,DHULSIRAS,502483,NEW DELHI
1226,ELECTION COMMISSION,502485,NEW DELHI
1227,FATEHPUR BERI,502487,NEW DELHI
1228,GADAIPUR,502489,NEW DELHI
1229,GHALIBPUR,502491,NEW DELHI
1230,GREEN PARK MARKET,502493,NEW DELHI
1231,GURU TEG BAHADUR HOSPITAL,502495,NEW DELHI
1232,GYMKHANA CLUB,502497,NEW DELHI
1233,GHOGA,502499,NEW DELHI
1234,GHONDA,502501,NEW DELHI
1235,GHUMAN HERA,502503,NEW DELHI
1236,GHOKALPURI,502505,NEW DELHI
1237,GOVERDHAN BIHARI COLONY,502507,NEW DELHI
1238,JHARODA MAJRA,502509,NEW DELHI
1239,JHATIKRA,502511,NEW DELHI
1240,JHILMIL,502513,NEW DELHI
1241,JNU NEW CAMPUS,502515,NEW DELHI
1242,JOHRIPUR,502517,NEW DELHI
1243,JWALA HERI,502519,NEW DELHI
1244,JWALAPURI,502521,NEW DELHI
1245,KADIPUR,502523,NEW DELHI
1246,KAKROLA,502525,NEW DELHI
1247,KALYANVAS,502527,NEW DELHI
1248,GURU GOBIND SINGH MARG,502529,NEW DELHI
1249,GURUKUL,502531,NEW DELHI
1250,HAZRAT NIZAMUDDIN,502533,NEW DELHI
1251,HIRANKI,502535,NEW DELHI
1252,H.S.SANGH,502537,NEW DELHI
1253,PANDWALA KALAN,502539,NEW DELHI
1254,ONKAR NAGAR,502541,NEW DELHI
1255,PADAM NAGAR,502543,NEW DELHI
1256,PALAM AIRPORT,502545,NEW DELHI
1257,PALLA,502547,NEW DELHI
1258,PANDARA ROAD,502549,NEW DELHI
1259,PAPRAWAT,502551,NEW DELHI
1260,PARLIAMENT HOUSE,502553,NEW DELHI
1261,PARYAVARAN COMPLEX,502555,NEW DELHI
1262,PATEL NAGAR,502557,NEW DELHI
1263,PATRACHAR VIDYALAYA,502559,NEW DELHI
1264,PEHLAD PUR,502561,NEW DELHI
1265,PEHLADPUR,502563,NEW DELHI
1266,PINTO PARK,502565,NEW DELHI
1267,POOTH KHURD,502567,NEW DELHI
1268,POWER HOUSE,502569,NEW DELHI
1269,PRAGATI VIHAR,502571,NEW DELHI
1270,PRASHANT VIHAR,502573,NEW DELHI
1271,PRATAP MARKET,502575,NEW DELHI
1272,PUNJAB KHOR,502577,NEW DELHI
1273,PUSHPA BHAVAN,502579,NEW DELHI
1274,POOTH KALAN,502581,NEW DELHI
1275,QUTABAGARH,502583,NEW DELHI
1276,RAGHUBAR PURA,502585,NEW DELHI
1277,RAIL BHAWAN,502587,NEW DELHI
1278,RAJOKRI,502589,NEW DELHI
1279,RANHOLA,502591,NEW DELHI
1280,SATBARI,502593,NEW DELHI
1281,SAT NAGAR,502595,NEW DELHI
1282,SATYAWATI NAGAR,502597,NEW DELHI
1283,SHAHBAD DAULATPUR,502599,NEW DELHI
1284,KANCHARAPALEM,502601,NEW DELHI
1285,DELHI NCR,502603,NEW DELHI
1286,SHIVAJI PARK,502605,NEW DELHI
1287,SIGNAL ENCLAVE,502607,NEW DELHI
1288,GOVIND PURA,502609,NEW DELHI
1289,KASTURBA NAGAR,502611,NEW DELHI
1290,KATEWARA,502613,NEW DELHI
1291,S J ENCLAVE,502615,NEW DELHI
1292,SHAKUR BASTI DEPOT,502617,NEW DELHI
1293,SHASTRI BHAVAN,502619,NEW DELHI
1294,SIRASPUR,502621,NEW DELHI
1295,SONIA VIHAR,502623,NEW DELHI
1296,SOUTH AVENUE,502625,NEW DELHI
1297,SRINIWASPURI,502627,NEW DELHI
1298,STATION ROAD DELHI,502629,NEW DELHI
1299,SUBROTO PARK,502631,NEW DELHI
1300,SUBZI MANDI,502633,NEW DELHI
1301,SUREHRA,502635,NEW DELHI
1302,SWAMI RAMTHIRTH NAGAR,502637,NEW DELHI
1303,TAJPUR KALAN,502639,NEW DELHI
1304,TALIMABAD,502641,NEW DELHI
1305,TB HOSPITAL,502643,NEW DELHI
1306,JAGJIT NAGAR,502645,NEW DELHI
1307,JAITPUR EDBO,502647,NEW DELHI
1308,JANATA MARKET,502649,NEW DELHI
1309,JAT KHORE,502651,NEW DELHI
1310,JAUNAPUR,502653,NEW DELHI
1311,JAUNTI,502655,NEW DELHI
1312,JHARODA KALAN,502657,NEW DELHI
1313,JEEVAN PARK,502659,NEW DELHI
1314,SECRETARIAT NORTH,502661,NEW DELHI
1315,SHAHBAD MOHAMMADPUR,502663,NEW DELHI
1316,SINGHU,502665,NEW DELHI
1317,SUBHASH NAGAR WEST,502667,NEW DELHI
1318,V. K. NAGAR,502669,NEW DELHI
1319,SHAHDARA MANDI,502671,NEW DELHI
1320,RAJGHAT POWER HOUSE,502673,NEW DELHI
1321,SABHAPUR,502675,NEW DELHI
1322,AIR FORCE STATION TUGHLAKABAD,502677,NEW DELHI
1323,AJMERI GATE EXTENSION,502679,NEW DELHI
1324,BAGDOLA,502681,NEW DELHI
1325,QUAZIPUR,502683,NEW DELHI
1326,SP SCHOOL EDSO,502685,NEW DELHI
1327,SRI NAGAR COLONY,502687,NEW DELHI
1328,S T ROAD,502689,NEW DELHI
1329,ZAKHIRA,502691,NEW DELHI
